[{"OBJECT_NAME":"STARLINK-31707","OBJECT_ID":"2024-090G","EPOCH":"2025-07-29T03:37:26.982336","MEAN_MOTION":15.27572374,"ECCENTRICITY":7.29e-5,"INCLINATION":42.9994,"RA_OF_ASC_NODE":5.8525,"ARG_OF_PERICENTER":58.4596,"MEAN_ANOMALY":301.6327,"EPHEMERIS_TYPE":0,"CLASSIFICATION_TYPE":"U","NORAD_CAT_ID":59736,"ELEMENT_SET_NO":999,"REV_AT_EPOCH":6926,"BSTAR":-9.4187e-6,"MEAN_MOTION_DOT":-5.21e-6,"MEAN_MOTION_DDOT":0},{"OBJECT_NAME":"STARLINK-31821","OBJECT_ID":"2024-090H","EPOCH":"2025-07-28T10:38:22.055712","MEAN_MOTION":15.27578476,"ECCENTRICITY":0.0002557,"INCLINATION":43.0037,"RA_OF_ASC_NODE":10.0003,"ARG_OF_PERICENTER":283.4151,"MEAN_ANOMALY":76.6415,"EPHEMERIS_TYPE":0,"CLASSIFICATION_TYPE":"U","NORAD_CAT_ID":59737,"ELEMENT_SET_NO":999,"REV_AT_EPOCH":6914,"BSTAR":3.3362e-5,"MEAN_MOTION_DOT":6.55e-6,"MEAN_MOTION_DDOT":0},{"OBJECT_NAME":"STARLINK-31819","OBJECT_ID":"2024-090J","EPOCH":"2025-07-28T18:23:36.394944","MEAN_MOTION":15.27570841,"ECCENTRICITY":0.0001337,"INCLINATION":43.0042,"RA_OF_ASC_NODE":8.1235,"ARG_OF_PERICENTER":254.1617,"MEAN_ANOMALY":105.9088,"EPHEMERIS_TYPE":0,"CLASSIFICATION_TYPE":"U","NORAD_CAT_ID":59738,"ELEMENT_SET_NO":999,"REV_AT_EPOCH":6915,"BSTAR":-3.8063e-5,"MEAN_MOTION_DOT":-1.309e-5,"MEAN_MOTION_DDOT":0},{"OBJECT_NAME":"STARLINK-31726","OBJECT_ID":"2024-090K","EPOCH":"2025-07-28T17:46:37.582464","MEAN_MOTION":15.27558094,"ECCENTRICITY":0.0001704,"INCLINATION":43.0049,"RA_OF_ASC_NODE":7.931,"ARG_OF_PERICENTER":285.9918,"MEAN_ANOMALY":74.0746,"EPHEMERIS_TYPE":0,"CLASSIFICATION_TYPE":"U","NORAD_CAT_ID":59739,"ELEMENT_SET_NO":999,"REV_AT_EPOCH":6919,"BSTAR":-5.4368e-5,"MEAN_MOTION_DOT":-1.757e-5,"MEAN_MOTION_DDOT":0},{"OBJECT_NAME":"STARLINK-31759","OBJECT_ID":"2024-090L","EPOCH":"2025-07-28T11:04:16.956768","MEAN_MOTION":15.27570925,"ECCENTRICITY":0.000183,"INCLINATION":43.0021,"RA_OF_ASC_NODE":10.1341,"ARG_OF_PERICENTER":275.0046,"MEAN_ANOMALY":85.0597,"EPHEMERIS_TYPE":0,"CLASSIFICATION_TYPE":"U","NORAD_CAT_ID":59740,"ELEMENT_SET_NO":999,"REV_AT_EPOCH":6914,"BSTAR":-2.5567e-5,"MEAN_MOTION_DOT":-9.66e-6,"MEAN_MOTION_DDOT":0},{"OBJECT_NAME":"STARLINK-31818","OBJECT_ID":"2024-090M","EPOCH":"2025-07-28T17:09:48.763008","MEAN_MOTION":15.27567988,"ECCENTRICITY":5.7e-5,"INCLINATION":43.0005,"RA_OF_ASC_NODE":8.5958,"ARG_OF_PERICENTER":271.1325,"MEAN_ANOMALY":88.9461,"EPHEMERIS_TYPE":0,"CLASSIFICATION_TYPE":"U","NORAD_CAT_ID":59741,"ELEMENT_SET_NO":999,"REV_AT_EPOCH":6917,"BSTAR":-3.362e-5,"MEAN_MOTION_DOT":-1.186e-5,"MEAN_MOTION_DDOT":0},{"OBJECT_NAME":"STARLINK-31816","OBJECT_ID":"2024-090N","EPOCH":"2025-07-29T02:55:05.719008","MEAN_MOTION":15.2757232,"ECCENTRICITY":0.0001024,"INCLINATION":43.0003,"RA_OF_ASC_NODE":6.4691,"ARG_OF_PERICENTER":249.1997,"MEAN_ANOMALY":110.8744,"EPHEMERIS_TYPE":0,"CLASSIFICATION_TYPE":"U","NORAD_CAT_ID":59742,"ELEMENT_SET_NO":999,"REV_AT_EPOCH":6922,"BSTAR":-0.00010535,"MEAN_MOTION_DOT":-3.159e-5,"MEAN_MOTION_DDOT":0},{"OBJECT_NAME":"STARLINK-31809","OBJECT_ID":"2024-090P","EPOCH":"2025-07-28T10:21:16.033248","MEAN_MOTION":15.27573804,"ECCENTRICITY":0.000164,"INCLINATION":43.0008,"RA_OF_ASC_NODE":2.9836,"ARG_OF_PERICENTER":267.6855,"MEAN_ANOMALY":92.3809,"EPHEMERIS_TYPE":0,"CLASSIFICATION_TYPE":"U","NORAD_CAT_ID":59743,"ELEMENT_SET_NO":999,"REV_AT_EPOCH":6922,"BSTAR":-3.2188e-5,"MEAN_MOTION_DOT":-1.148e-5,"MEAN_MOTION_DDOT":0},{"OBJECT_NAME":"STARLINK-31779","OBJECT_ID":"2024-090Q","EPOCH":"2025-07-28T17:57:41.726304","MEAN_MOTION":15.27575474,"ECCENTRICITY":8.66e-5,"INCLINATION":43.0011,"RA_OF_ASC_NODE":7.99,"ARG_OF_PERICENTER":246.158,"MEAN_ANOMALY":113.9181,"EPHEMERIS_TYPE":0,"CLASSIFICATION_TYPE":"U","NORAD_CAT_ID":59744,"ELEMENT_SET_NO":999,"REV_AT_EPOCH":6917,"BSTAR":-5.0649e-6,"MEAN_MOTION_DOT":-4.01e-6,"MEAN_MOTION_DDOT":0},{"OBJECT_NAME":"STARLINK-31805","OBJECT_ID":"2024-090R","EPOCH":"2025-07-29T03:05:59.170848","MEAN_MOTION":15.27568708,"ECCENTRICITY":0.0001522,"INCLINATION":43.0041,"RA_OF_ASC_NODE":5.6862,"ARG_OF_PERICENTER":272.5437,"MEAN_ANOMALY":87.524,"EPHEMERIS_TYPE":0,"CLASSIFICATION_TYPE":"U","NORAD_CAT_ID":59745,"ELEMENT_SET_NO":999,"REV_AT_EPOCH":6925,"BSTAR":-4.1011e-5,"MEAN_MOTION_DOT":-1.39e-5,"MEAN_MOTION_DDOT":0},{"OBJECT_NAME":"STARLINK-31681","OBJECT_ID":"2024-090S","EPOCH":"2025-07-28T18:17:35.490912","MEAN_MOTION":15.27580916,"ECCENTRICITY":0.0001186,"INCLINATION":43.0022,"RA_OF_ASC_NODE":1.1651,"ARG_OF_PERICENTER":249.241,"MEAN_ANOMALY":110.8315,"EPHEMERIS_TYPE":0,"CLASSIFICATION_TYPE":"U","NORAD_CAT_ID":59746,"ELEMENT_SET_NO":999,"REV_AT_EPOCH":6927,"BSTAR":7.46e-6,"MEAN_MOTION_DOT":-5.7e-7,"MEAN_MOTION_DDOT":0},{"OBJECT_NAME":"STARLINK-31636","OBJECT_ID":"2024-090T","EPOCH":"2025-07-29T03:26:20.300064","MEAN_MOTION":15.27568081,"ECCENTRICITY":8.95e-5,"INCLINATION":43.0023,"RA_OF_ASC_NODE":5.7937,"ARG_OF_PERICENTER":269.29,"MEAN_ANOMALY":90.7849,"EPHEMERIS_TYPE":0,"CLASSIFICATION_TYPE":"U","NORAD_CAT_ID":59747,"ELEMENT_SET_NO":999,"REV_AT_EPOCH":6925,"BSTAR":-7.3404e-5,"MEAN_MOTION_DOT":-2.28e-5,"MEAN_MOTION_DDOT":0},{"OBJECT_NAME":"STARLINK-31640","OBJECT_ID":"2024-090U","EPOCH":"2025-07-28T10:34:40.019808","MEAN_MOTION":15.27575106,"ECCENTRICITY":8.92e-5,"INCLINATION":43.0028,"RA_OF_ASC_NODE":9.9733,"ARG_OF_PERICENTER":234.5946,"MEAN_ANOMALY":125.4822,"EPHEMERIS_TYPE":0,"CLASSIFICATION_TYPE":"U","NORAD_CAT_ID":59748,"ELEMENT_SET_NO":999,"REV_AT_EPOCH":6914,"BSTAR":1.3759e-5,"MEAN_MOTION_DOT":1.17e-6,"MEAN_MOTION_DDOT":0},{"OBJECT_NAME":"STARLINK-31677","OBJECT_ID":"2024-090V","EPOCH":"2025-07-28T10:58:43.397472","MEAN_MOTION":15.27573498,"ECCENTRICITY":0.0001527,"INCLINATION":42.9996,"RA_OF_ASC_NODE":10.1007,"ARG_OF_PERICENTER":272.9662,"MEAN_ANOMALY":87.1015,"EPHEMERIS_TYPE":0,"CLASSIFICATION_TYPE":"U","NORAD_CAT_ID":59749,"ELEMENT_SET_NO":999,"REV_AT_EPOCH":6913,"BSTAR":-3.9911e-6,"MEAN_MOTION_DOT":-3.72e-6,"MEAN_MOTION_DDOT":0},{"OBJECT_NAME":"STARLINK-31783","OBJECT_ID":"2024-090W","EPOCH":"2025-07-29T02:51:22.841568","MEAN_MOTION":15.27583749,"ECCENTRICITY":0.0001687,"INCLINATION":42.9987,"RA_OF_ASC_NODE":6.4673,"ARG_OF_PERICENTER":264.0425,"MEAN_ANOMALY":96.0234,"EPHEMERIS_TYPE":0,"CLASSIFICATION_TYPE":"U","NORAD_CAT_ID":59750,"ELEMENT_SET_NO":999,"REV_AT_EPOCH":6925,"BSTAR":6.7412e-6,"MEAN_MOTION_DOT":-7.7e-7,"MEAN_MOTION_DDOT":0},{"OBJECT_NAME":"STARLINK-31808","OBJECT_ID":"2024-090X","EPOCH":"2025-07-28T17:35:29.452992","MEAN_MOTION":15.27584063,"ECCENTRICITY":0.0001228,"INCLINATION":42.9988,"RA_OF_ASC_NODE":7.8753,"ARG_OF_PERICENTER":265.9882,"MEAN_ANOMALY":94.0829,"EPHEMERIS_TYPE":0,"CLASSIFICATION_TYPE":"U","NORAD_CAT_ID":59751,"ELEMENT_SET_NO":999,"REV_AT_EPOCH":6919,"BSTAR":-9.5079e-5,"MEAN_MOTION_DOT":-2.878e-5,"MEAN_MOTION_DDOT":0},{"OBJECT_NAME":"STARLINK-31822","OBJECT_ID":"2024-090Y","EPOCH":"2025-07-29T03:31:52.450176","MEAN_MOTION":15.27582346,"ECCENTRICITY":0.0002878,"INCLINATION":43.0048,"RA_OF_ASC_NODE":5.8201,"ARG_OF_PERICENTER":254.2984,"MEAN_ANOMALY":105.755,"EPHEMERIS_TYPE":0,"CLASSIFICATION_TYPE":"U","NORAD_CAT_ID":59752,"ELEMENT_SET_NO":999,"REV_AT_EPOCH":6925,"BSTAR":-4.3306e-5,"MEAN_MOTION_DOT":-1.455e-5,"MEAN_MOTION_DDOT":0}]
