STARLINK-31707          
1 59736U 24090G   25210.15100674 -.00000521  00000+0 -94187-5 0  9992
2 59736  42.9994   5.8525 0000729  58.4596 301.6327 15.27572374 69267
STARLINK-31821          
1 59737U 24090H   25209.44331083  .00000655  00000+0  33362-4 0  9996
2 59737  43.0037  10.0003 0002557 283.4151  76.6415 15.27578476 69148
STARLINK-31819          
1 59738U 24090J   25209.76639346 -.00001309  00000+0 -38063-4 0  9997
2 59738  43.0042   8.1235 0001337 254.1617 105.9088 15.27570841 69158
STARLINK-31726          
1 59739U 24090K   25209.74071276 -.00001757  00000+0 -54368-4 0  9991
2 59739  43.0049   7.9310 0001704 285.9918  74.0746 15.27558094 69198
STARLINK-31759          
1 59740U 24090L   25209.46130737 -.00000966  00000+0 -25567-4 0  9990
2 59740  43.0021  10.1341 0001830 275.0046  85.0597 15.27570925 69140
STARLINK-31818          
1 59741U 24090M   25209.71514772 -.00001186  00000+0 -33620-4 0  9998
2 59741  43.0005   8.5958 0000570 271.1325  88.9461 15.27567988 69175
STARLINK-31816          
1 59742U 24090N   25210.12159397 -.00003159  00000+0 -10535-3 0  9995
2 59742  43.0003   6.4691 0001024 249.1997 110.8744 15.27572320 69221
STARLINK-31809          
1 59743U 24090P   25209.43143557 -.00001148  00000+0 -32188-4 0  9994
2 59743  43.0008   2.9836 0001640 267.6855  92.3809 15.27573804 69225
STARLINK-31779          
1 59744U 24090Q   25209.74839961 -.00000401  00000+0 -50649-5 0  9994
2 59744  43.0011   7.9900 0000866 246.1580 113.9181 15.27575474 69175
STARLINK-31805          
1 59745U 24090R   25210.12915707 -.00001390  00000+0 -41011-4 0  9992
2 59745  43.0041   5.6862 0001522 272.5437  87.5240 15.27568708 69258
STARLINK-31681          
1 59746U 24090S   25209.76221633 -.00000057  00000+0  74600-5 0  9998
2 59746  43.0022   1.1651 0001186 249.2410 110.8315 15.27580916 69273
STARLINK-31636          
1 59747U 24090T   25210.14329051 -.00002280  00000+0 -73404-4 0  9997
2 59747  43.0023   5.7937 0000895 269.2900  90.7849 15.27568081 69259
STARLINK-31640          
1 59748U 24090U   25209.44074097  .00000117  00000+0  13759-4 0  9998
2 59748  43.0028   9.9733 0000892 234.5946 125.4822 15.27575106 69148
STARLINK-31677          
1 59749U 24090V   25209.45744673 -.00000372  00000+0 -39911-5 0  9998
2 59749  42.9996  10.1007 0001527 272.9662  87.1015 15.27573498 69135
STARLINK-31783          
1 59750U 24090W   25210.11901437 -.00000077  00000+0  67412-5 0  9996
2 59750  42.9987   6.4673 0001687 264.0425  96.0234 15.27583749 69255
STARLINK-31808          
1 59751U 24090X   25209.73297978 -.00002878  00000+0 -95079-4 0  9992
2 59751  42.9988   7.8753 0001228 265.9882  94.0829 15.27584063 69190
STARLINK-31822          
1 59752U 24090Y   25210.14713484 -.00001455  00000+0 -43306-4 0  9991
2 59752  43.0048   5.8201 0002878 254.2984 105.7550 15.27582346 69252
